[
    {
        "Altitude(m)": 557738.6264084965,
        "Argument of Periapsis(deg)": 0.033114955553567506,
        "Eccentricity": 0.0,
        "Inclination(deg)": 53.0,
        "Latitude(deg)": 43.66531398701134,
        "Longitude(deg)": 51.68007123226484,
        "Mean Anomaly(deg)": 59.54896433788792,
        "RAAN(deg)": 109.95071684264009,
        "Satellite Name": "Starlink Shell 1 484",
        "Satellite Number": 484,
        "Semi-Major Axis(m)": 6931778.249405717,
        "Time(s)": 950
    },
    {
        "Altitude(m)": 557816.3891840557,
        "Argument of Periapsis(deg)": 0.03346353403307874,
        "Eccentricity": 0.0,
        "Inclination(deg)": 53.0,
        "Latitude(deg)": 44.013578754038925,
        "Longitude(deg)": 52.36036512359311,
        "Mean Anomaly(deg)": 60.17579554144466,
        "RAAN(deg)": 109.95019807256261,
        "Satellite Name": "Starlink Shell 1 484",
        "Satellite Number": 484,
        "Semi-Major Axis(m)": 6931778.249405717,
        "Time(s)": 960
    },
    {
        "Altitude(m)": 557893.3589878805,
        "Argument of Periapsis(deg)": 0.03381211251258998,
        "Eccentricity": 0.0,
        "Inclination(deg)": 53.0,
        "Latitude(deg)": 44.35721295463583,
        "Longitude(deg)": 53.04908932045011,
        "Mean Anomaly(deg)": 60.80262674500136,
        "RAAN(deg)": 109.94967930248514,
        "Satellite Name": "Starlink Shell 1 484",
        "Satellite Number": 484,
        "Semi-Major Axis(m)": 6931778.249405717,
        "Time(s)": 970
    },
    {
        "Altitude(m)": 557969.4874753561,
        "Argument of Periapsis(deg)": 0.034160690992101214,
        "Eccentricity": 0.0,
        "Inclination(deg)": 53.0,
        "Latitude(deg)": 44.69610753913091,
        "Longitude(deg)": 53.746328520314485,
        "Mean Anomaly(deg)": 61.42945794855808,
        "RAAN(deg)": 109.94916053240766,
        "Satellite Name": "Starlink Shell 1 484",
        "Satellite Number": 484,
        "Semi-Major Axis(m)": 6931778.249405717,
        "Time(s)": 980
    },
    {
        "Altitude(m)": 558044.7269371918,
        "Argument of Periapsis(deg)": 0.034509269471612446,
        "Eccentricity": 0.0,
        "Inclination(deg)": 53.0,
        "Latitude(deg)": 45.030151776813995,
        "Longitude(deg)": 54.4521627041598,
        "Mean Anomaly(deg)": 62.056289152114786,
        "RAAN(deg)": 109.94864176233018,
        "Satellite Name": "Starlink Shell 1 484",
        "Satellite Number": 484,
        "Semi-Major Axis(m)": 6931778.249405717,
        "Time(s)": 990
    }
]